ISS OBJECT XW           
1 66910U 98067XW  26064.11590703  .00136506  00000+0  12326-2 0  9992
2 66910  51.6242  88.8496 0005012  59.2455 300.9034 15.67168972 14461
ISS OBJECT XX           
1 66911U 98067XX  26064.07213096  .00238020  00000+0  16693-2 0  9990
2 66911  51.6210  87.7948 0007044  55.4619 304.7043 15.72901733 14462
ISS OBJECT XY           
1 66912U 98067XY  26064.10656842  .00093092  00000+0  10104-2 0  9994
2 66912  51.6265  90.3029 0003046  62.7739 297.3566 15.62727645 14436
ISS OBJECT XZ           
1 67683U 98067XZ  26063.31738248  .00052289  00000+0  87421-3 0  9993
2 67683  51.6304  98.5346 0009491 167.7937 192.3284 15.51337660  3952
GXIBA-1                 
1 67684U 98067YA  26064.06987840  .00079615  00000+0  12232-2 0  9990
2 67684  51.6301  94.5596 0010898 160.3519 199.7893 15.53491621  4072
CORAL                   
1 67685U 98067YB  26064.08693506  .00047663  00000+0  78666-3 0  9998
2 67685  51.6309  94.6739 0011365 166.7274 193.4017 15.51717466  4074
ISS OBJECT YC           
1 67686U 98067YC  26064.08285944  .00055661  00000+0  90337-3 0  9998
2 67686  51.6311  94.6478 0007744 134.4448 225.7176 15.52157473  4071
LEOPARD                 
1 67687U 98067YD  26063.31561112  .00056781  00000+0  94368-3 0  9990
2 67687  51.6306  98.5236 0007781 136.2386 223.9221 15.51484974  3879
ISS OBJECT YE           
1 67688U 98067YE  26063.50513603  .00064836  00000+0  10599-2 0  9997
2 67688  51.6315  97.5383 0007786 134.7310 225.4314 15.51890022  3906
CREW DRAGON 12          
1 67796U 26031A   26063.86671769  .00009014  00000+0  17477-3 0  9996
2 67796  51.6315  96.2009 0008177 157.5272 202.6076 15.48447334555490
